{
    "week": 294,
    "satellites": [
        {
            "Name": "BEIDOU-3 M8 (C28)",
            "Line1": "1 43108U 18003B   24329.05140411 -.00000077  00000+0  00000+0 0  9997",
            "Line2": "2 43108  54.8099 322.0975 0005199 266.1246  93.8267  1.86231006 46745",
            "SatelliteNumber": "43108",
            "Classification": "U",
            "LaunchYear": "18",
            "LaunchNumber": "003",
            "PieceOfLaunch": "B",
            "EpochYear": "24",
            "EpochDay": 329.05140411,
            "FirstDerivativeMeanMotion": -7.7e-07,
            "SecondDerivativeMeanMotion": "00000+0",
            "BSTAR": "00000+0",
            "SetNumber": "999",
            "Inclination": 54.8099,
            "RAAN": 322.0975,
            "Eccentricity": 0.0005199,
            "ArgumentOfPerigee": 266.1246,
            "MeanAnomaly": 93.8267,
            "MeanMotion": 1.86231006,
            "RevolutionNumber": "4674"
        },
        {
            "Name": "BEIDOU-3 M4 (C22)",
            "Line1": "1 43207U 18018A   24328.95556500 -.00000021  00000+0  00000+0 0  9990",
            "Line2": "2 43207  56.1550  82.0304 0003749  14.5229 345.4742  1.86231305 46124",
            "SatelliteNumber": "43207",
            "Classification": "U",
            "LaunchYear": "18",
            "LaunchNumber": "018",
            "PieceOfLaunch": "A",
            "EpochYear": "24",
            "EpochDay": 328.955565,
            "FirstDerivativeMeanMotion": -2.1e-07,
            "SecondDerivativeMeanMotion": "00000+0",
            "BSTAR": "00000+0",
            "SetNumber": "999",
            "Inclination": 56.155,
            "RAAN": 82.0304,
            "Eccentricity": 0.0003749,
            "ArgumentOfPerigee": 14.5229,
            "MeanAnomaly": 345.4742,
            "MeanMotion": 1.86231305,
            "RevolutionNumber": "4612"
        },
        {
            "Name": "BEIDOU-3 M3 (C21)",
            "Line1": "1 43208U 18018B   24329.02217486 -.00000022  00000+0  00000+0 0  9998",
            "Line2": "2 43208  56.1546  82.0324 0005702 312.3820  47.5561  1.86231421 46127",
            "SatelliteNumber": "43208",
            "Classification": "U",
            "LaunchYear": "18",
            "LaunchNumber": "018",
            "PieceOfLaunch": "B",
            "EpochYear": "24",
            "EpochDay": 329.02217486,
            "FirstDerivativeMeanMotion": -2.2e-07,
            "SecondDerivativeMeanMotion": "00000+0",
            "BSTAR": "00000+0",
            "SetNumber": "999",
            "Inclination": 56.1546,
            "RAAN": 82.0324,
            "Eccentricity": 0.0005702,
            "ArgumentOfPerigee": 312.382,
            "MeanAnomaly": 47.5561,
            "MeanMotion": 1.86231421,
            "RevolutionNumber": "4612"
        },
        {
            "Name": "BEIDOU-3 M9 (C29)",
            "Line1": "1 43245U 18029A   24328.16810362 -.00000075  00000+0  00000+0 0  9995",
            "Line2": "2 43245  54.6958 319.8349 0002239 267.0326  92.9496  1.86232805 45267",
            "SatelliteNumber": "43245",
            "Classification": "U",
            "LaunchYear": "18",
            "LaunchNumber": "029",
            "PieceOfLaunch": "A",
            "EpochYear": "24",
            "EpochDay": 328.16810362,
            "FirstDerivativeMeanMotion": -7.5e-07,
            "SecondDerivativeMeanMotion": "00000+0",
            "BSTAR": "00000+0",
            "SetNumber": "999",
            "Inclination": 54.6958,
            "RAAN": 319.8349,
            "Eccentricity": 0.0002239,
            "ArgumentOfPerigee": 267.0326,
            "MeanAnomaly": 92.9496,
            "MeanMotion": 1.86232805,
            "RevolutionNumber": "4526"
        },
        {
            "Name": "BEIDOU-3 M10 (C30)",
            "Line1": "1 43246U 18029B   24329.17144654 -.00000076  00000+0  00000+0 0  9993",
            "Line2": "2 43246  54.6926 319.8283 0003813 344.9003  15.0965  1.86232918 45268",
            "SatelliteNumber": "43246",
            "Classification": "U",
            "LaunchYear": "18",
            "LaunchNumber": "029",
            "PieceOfLaunch": "B",
            "EpochYear": "24",
            "EpochDay": 329.17144654,
            "FirstDerivativeMeanMotion": -7.6e-07,
            "SecondDerivativeMeanMotion": "00000+0",
            "BSTAR": "00000+0",
            "SetNumber": "999",
            "Inclination": 54.6926,
            "RAAN": 319.8283,
            "Eccentricity": 0.0003813,
            "ArgumentOfPerigee": 344.9003,
            "MeanAnomaly": 15.0965,
            "MeanMotion": 1.86232918,
            "RevolutionNumber": "4526"
        },
        {
            "Name": "BEIDOU-2 IGSO-7 (C16)",
            "Line1": "1 43539U 18057A   24329.49861903 -.00000047  00000+0  00000+0 0  9995",
            "Line2": "2 43539  55.1502 167.9899 0077997 232.1996 315.9270  1.00263160 23421",
            "SatelliteNumber": "43539",
            "Classification": "U",
            "LaunchYear": "18",
            "LaunchNumber": "057",
            "PieceOfLaunch": "A",
            "EpochYear": "24",
            "EpochDay": 329.49861903,
            "FirstDerivativeMeanMotion": -4.7e-07,
            "SecondDerivativeMeanMotion": "00000+0",
            "BSTAR": "00000+0",
            "SetNumber": "999",
            "Inclination": 55.1502,
            "RAAN": 167.9899,
            "Eccentricity": 0.0077997,
            "ArgumentOfPerigee": 232.1996,
            "MeanAnomaly": 315.927,
            "MeanMotion": 1.0026316,
            "RevolutionNumber": "2342"
        },
        {
            "Name": "BEIDOU-3 M5 (C23)",
            "Line1": "1 43581U 18062A   24328.86008373  .00000017  00000+0  00000+0 0  9998",
            "Line2": "2 43581  54.1137 201.6999 0002337 331.7952  28.2739  1.86228877 43013",
            "SatelliteNumber": "43581",
            "Classification": "U",
            "LaunchYear": "18",
            "LaunchNumber": "062",
            "PieceOfLaunch": "A",
            "EpochYear": "24",
            "EpochDay": 328.86008373,
            "FirstDerivativeMeanMotion": 1.7e-07,
            "SecondDerivativeMeanMotion": "00000+0",
            "BSTAR": "00000+0",
            "SetNumber": "999",
            "Inclination": 54.1137,
            "RAAN": 201.6999,
            "Eccentricity": 0.0002337,
            "ArgumentOfPerigee": 331.7952,
            "MeanAnomaly": 28.2739,
            "MeanMotion": 1.86228877,
            "RevolutionNumber": "4301"
        },
        {
            "Name": "BEIDOU-3 M6 (C24)",
            "Line1": "1 43582U 18062B   24329.26203086  .00000022  00000+0  00000+0 0  9998",
            "Line2": "2 43582  54.1133 201.6756 0007075  36.6994 323.4317  1.86229972 43022",
            "SatelliteNumber": "43582",
            "Classification": "U",
            "LaunchYear": "18",
            "LaunchNumber": "062",
            "PieceOfLaunch": "B",
            "EpochYear": "24",
            "EpochDay": 329.26203086,
            "FirstDerivativeMeanMotion": 2.2e-07,
            "SecondDerivativeMeanMotion": "00000+0",
            "BSTAR": "00000+0",
            "SetNumber": "999",
            "Inclination": 54.1133,
            "RAAN": 201.6756,
            "Eccentricity": 0.0007075,
            "ArgumentOfPerigee": 36.6994,
            "MeanAnomaly": 323.4317,
            "MeanMotion": 1.86229972,
            "RevolutionNumber": "4302"
        },
        {
            "Name": "BEIDOU-3 M12 (C26)",
            "Line1": "1 43602U 18067A   24329.19587296  .00000024  00000+0  00000+0 0  9998",
            "Line2": "2 43602  54.2052 200.3738 0008528  33.4038 326.7330  1.86227802 42503",
            "SatelliteNumber": "43602",
            "Classification": "U",
            "LaunchYear": "18",
            "LaunchNumber": "067",
            "PieceOfLaunch": "A",
            "EpochYear": "24",
            "EpochDay": 329.19587296,
            "FirstDerivativeMeanMotion": 2.4e-07,
            "SecondDerivativeMeanMotion": "00000+0",
            "BSTAR": "00000+0",
            "SetNumber": "999",
            "Inclination": 54.2052,
            "RAAN": 200.3738,
            "Eccentricity": 0.0008528,
            "ArgumentOfPerigee": 33.4038,
            "MeanAnomaly": 326.733,
            "MeanMotion": 1.86227802,
            "RevolutionNumber": "4250"
        },
        {
            "Name": "BEIDOU-3 M11 (C25)",
            "Line1": "1 43603U 18067B   24329.32935263  .00000026  00000+0  00000+0 0  9997",
            "Line2": "2 43603  54.2026 200.3341 0005164  28.5690 331.5426  1.86227321 42536",
            "SatelliteNumber": "43603",
            "Classification": "U",
            "LaunchYear": "18",
            "LaunchNumber": "067",
            "PieceOfLaunch": "B",
            "EpochYear": "24",
            "EpochDay": 329.32935263,
            "FirstDerivativeMeanMotion": 2.6e-07,
            "SecondDerivativeMeanMotion": "00000+0",
            "BSTAR": "00000+0",
            "SetNumber": "999",
            "Inclination": 54.2026,
            "RAAN": 200.3341,
            "Eccentricity": 0.0005164,
            "ArgumentOfPerigee": 28.569,
            "MeanAnomaly": 331.5426,
            "MeanMotion": 1.86227321,
            "RevolutionNumber": "4253"
        }
    ]
}